      2.10          N: GNSS NAV DATA                        RINEX VERSION / TYPE
fic2rin                                 07/25/2020 00:17:50 PGM / RUN BY / DATE
                                                            END OF HEADER
 9 20  7 24  6  0  0.0-2.588108181953e-04-6.366462912410e-12 0.000000000000e+00
    7.500000000000e+01-9.343750000000e+00 4.591619830825e-09-1.045288266578e+00
   -5.159527063370e-07 1.574268913828e-03 1.275166869164e-05 5.153695415497e+03
    4.536000000000e+05-1.490116119385e-08-2.141557978886e+00 3.352761268616e-08
    9.527457819603e-01 1.343437500000e+02 1.776522891652e+00-7.997833141853e-09
    4.464471677451e-10 1.000000000000e+00 2.115000000000e+03 0.000000000000e+00
    2.400000000000e+00 0.000000000000e+00 1.396983861923e-09 7.500000000000e+01
    4.464000000000e+05 4.000000000000e+00
10 20  7 24  6  0  0.0-4.082517698407e-04-1.057287590811e-11 0.000000000000e+00
    7.200000000000e+01-1.065625000000e+02 4.372682139763e-09 6.465240713512e-01
   -5.563721060753e-06 5.712279235013e-03 6.791204214096e-06 5.153673212051e+03
    4.536000000000e+05-1.490116119385e-08 3.108151896991e+00 1.192092895508e-07
    9.665766673751e-01 2.536250000000e+02-2.644467141014e+00-8.182840848166e-09
   -1.853648640478e-10 1.000000000000e+00 2.115000000000e+03 0.000000000000e+00
    2.400000000000e+00 0.000000000000e+00 2.328306436539e-09 7.200000000000e+01
    4.464000000000e+05 4.000000000000e+00
29 20  7 24  6  0  0.0-1.571411266923e-04-8.412825991400e-12 0.000000000000e+00
    3.100000000000e+01 7.337500000000e+01 3.773371461782e-09-1.204486623908e+00
    3.805384039879e-06 1.622615382075e-03 1.056492328644e-05 5.153776758194e+03
    4.536000000000e+05-9.313225746155e-09 1.085455153313e+00 4.470348358154e-08
    9.854406668507e-01 1.889375000000e+02 2.112312586069e+00-7.697106329660e-09
    6.107397254753e-11 1.000000000000e+00 2.115000000000e+03 0.000000000000e+00
    2.400000000000e+00 0.000000000000e+00-9.778887033463e-09 3.100000000000e+01
    4.464000000000e+05 4.000000000000e+00
28 20  7 24  6  0  0.0 6.965789943933e-04-3.751665644813e-12 0.000000000000e+00
    2.200000000000e+01-1.462500000000e+01 4.401611916233e-09-6.780466790229e-01
   -7.543712854385e-07 1.836275367532e-02 9.423121809959e-06 5.153663576126e+03
    4.536000000000e+05-1.899898052216e-07 6.194045910875e-02-2.793967723846e-08
    9.770987217523e-01 2.093125000000e+02-1.402895767623e+00-8.284987960147e-09
   -5.885959459551e-10 1.000000000000e+00 2.115000000000e+03 0.000000000000e+00
    3.400000000000e+00 0.000000000000e+00-1.117587089539e-08 2.200000000000e+01
    4.464000000000e+05 4.000000000000e+00
31 20  7 24  6  0  0.0-5.760556086898e-05-2.501110429876e-12 0.000000000000e+00
    8.600000000000e+01 3.234375000000e+01 5.217003023402e-09 1.646408346373e+00
    1.935288310051e-06 9.557975223288e-03 5.630776286125e-06 5.153612974167e+03
    4.536000000000e+05 6.146728992462e-08-1.051595728577e+00 2.291053533554e-07
    9.569439574712e-01 2.693125000000e+02 1.399525113667e-01-8.484996291296e-09
    7.928901699153e-11 1.000000000000e+00 2.115000000000e+03 0.000000000000e+00
    2.400000000000e+00 0.000000000000e+00-1.303851604462e-08 8.600000000000e+01
    4.464000000000e+05 4.000000000000e+00
30 20  7 24  6  0  0.0-2.682446502149e-04-7.617018127348e-12 0.000000000000e+00
    6.500000000000e+01 3.181250000000e+01 5.717738166745e-09 1.919538212197e+00
    1.735985279083e-06 4.762880154885e-03 5.429610610008e-06 5.153608020782e+03
    4.536000000000e+05-5.401670932770e-08-1.045581511433e+00 9.872019290924e-08
    9.378342667559e-01 2.650312500000e+02-2.820174937023e+00-8.677504310028e-09
    2.285809498855e-10 1.000000000000e+00 2.115000000000e+03 0.000000000000e+00
    2.400000000000e+00 0.000000000000e+00 3.725290298462e-09 6.500000000000e+01
    4.464000000000e+05 4.000000000000e+00
22 20  7 24  6  0  0.0-7.698070257902e-04 2.842170943040e-12 0.000000000000e+00
    4.500000000000e+01-1.067187500000e+02 5.153786104449e-09-2.374318580813e+00
   -5.383044481277e-06 6.911144708283e-03 5.906447768211e-06 5.153781961441e+03
    4.536000000000e+05-3.725290298462e-09 3.022697515256e+00 1.192092895508e-07
    9.317062228811e-01 2.449687500000e+02-1.112470529400e+00-8.471781455131e-09
   -1.700070814773e-10 1.000000000000e+00 2.115000000000e+03 0.000000000000e+00
    2.400000000000e+00 0.000000000000e+00-1.816079020500e-08 4.500000000000e+01
    4.464000000000e+05 4.000000000000e+00
13 20  7 24  6  0  0.0 2.946192398667e-05 3.296918293927e-12 0.000000000000e+00
    3.100000000000e+01-8.406250000000e+00 4.253034298807e-09-2.102704535113e+00
   -5.178153514862e-07 4.263010690920e-03 1.200661063194e-05 5.153666107178e+03
    4.536000000000e+05 8.381903171539e-08-1.997761585897e+00-1.117587089539e-08
    9.677221424716e-01 1.486875000000e+02 1.050150377218e+00-7.756037355802e-09
    5.382367054335e-10 1.000000000000e+00 2.115000000000e+03 0.000000000000e+00
    2.400000000000e+00 0.000000000000e+00-1.117587089539e-08 3.100000000000e+01
    4.464000000000e+05 4.000000000000e+00
12 20  7 24  6  0  0.0 8.974596858025e-05-4.888534022029e-12 0.000000000000e+00
    2.900000000000e+01-2.771875000000e+01 4.295536069176e-09 1.268887490326e+00
   -1.545995473862e-06 7.957300986163e-03 9.050592780113e-06 5.153654272079e+03
    4.536000000000e+05-1.527369022369e-07 3.940015235164e-02-3.539025783539e-08
    9.778531895675e-01 2.165625000000e+02 1.168498011147e+00-7.984261147953e-09
   -6.646705433389e-10 1.000000000000e+00 2.115000000000e+03 0.000000000000e+00
    2.400000000000e+00 0.000000000000e+00-1.210719347000e-08 2.900000000000e+01
    4.464000000000e+05 4.000000000000e+00
25 20  7 24  6  0  0.0 2.684025093913e-05 4.433786671143e-12 0.000000000000e+00
    3.600000000000e+01-2.965625000000e+01 4.691266838666e-09 1.055489726847e+00
   -1.482665538788e-06 9.088103892282e-03 8.266419172287e-06 5.153758666992e+03
    4.536000000000e+05-1.080334186554e-07-3.021214613716e-02 7.636845111847e-08
    9.651505299822e-01 2.240625000000e+02 9.400555454753e-01-8.234271561891e-09
   -6.589560195918e-10 1.000000000000e+00 2.115000000000e+03 0.000000000000e+00
    2.400000000000e+00 0.000000000000e+00 5.587935447693e-09 3.600000000000e+01
    4.464000000000e+05 4.000000000000e+00
17 20  7 24  6  0  0.0 3.005508333445e-04 5.684341886081e-12 0.000000000000e+00
    3.000000000000e+01 9.459375000000e+01 3.775514408187e-09-1.518323563357e+00
    4.921108484268e-06 1.326231774874e-02 1.116096973419e-05 5.153736135483e+03
    4.536000000000e+05 6.891787052155e-08 1.073601566992e+00 3.594905138016e-07
    9.837558489684e-01 1.789687500000e+02-1.639695211339e+00-7.759608933144e-09
   -4.107313943255e-11 1.000000000000e+00 2.115000000000e+03 0.000000000000e+00
    2.400000000000e+00 0.000000000000e+00-1.071020960808e-08 3.000000000000e+01
    4.464000000000e+05 4.000000000000e+00
27 20  7 24  6  0  0.0-3.536157310009e-04-9.549694368616e-12 0.000000000000e+00
    1.020000000000e+02 8.590625000000e+01 3.828730910582e-09-1.447981834895e+00
    4.453584551811e-06 8.307073265314e-03 1.043640077114e-05 5.153671779633e+03
    4.536000000000e+05 1.639127731323e-07 1.014837103033e+00-1.490116119385e-07
    9.778732359339e-01 1.904375000000e+02 5.799947220339e-01-7.667462237722e-09
   -1.785788670980e-11 1.000000000000e+00 2.115000000000e+03 0.000000000000e+00
    2.400000000000e+00 0.000000000000e+00 1.862645149231e-09 1.020000000000e+02
    4.464000000000e+05 4.000000000000e+00
15 20  7 24  6  0  0.0-2.154367975891e-04 2.614797267597e-12 0.000000000000e+00
    9.300000000000e+01-3.818750000000e+01 5.019137638658e-09-2.276501191035e+00
   -2.298504114151e-06 1.248254929669e-02 1.182593405247e-05 5.153726474762e+03
    4.536000000000e+05 1.471489667892e-07-2.232571834070e+00-1.005828380585e-07
    9.283752739851e-01 1.288125000000e+02 8.943307096524e-01-8.033548915273e-09
    4.664480008601e-10 1.000000000000e+00 2.115000000000e+03 0.000000000000e+00
    2.400000000000e+00 0.000000000000e+00-1.071020960808e-08 9.300000000000e+01
    4.464000000000e+05 4.000000000000e+00
19 20  7 24  6  0  0.0-1.279045827687e-04 5.115907697473e-12 0.000000000000e+00
    1.000000000000e+02 8.737500000000e+01 3.859446475723e-09 1.097531969229e+00
    4.230067133904e-06 9.427492273971e-03 1.134537160397e-05 5.153696729660e+03
    4.536000000000e+05-2.980232238770e-08 1.119151026732e+00-1.732259988785e-07
    9.819716638385e-01 1.768437500000e+02 1.676969998269e+00-7.862827518327e-09
   -2.071514858337e-11 1.000000000000e+00 2.115000000000e+03 0.000000000000e+00
    3.400000000000e+00 0.000000000000e+00-1.536682248116e-08 1.000000000000e+02
    4.464000000000e+05 4.000000000000e+00
32 20  7 24  6  0  0.0 3.219307400286e-04 5.911715561524e-12 0.000000000000e+00
    1.010000000000e+02-1.256250000000e+01 4.509116394226e-09-7.514208216134e-01
   -5.215406417847e-07 4.081913502887e-03 1.139193773270e-05 5.153744407654e+03
    4.536000000000e+05 3.911554813385e-08-2.132902964930e+00 5.401670932770e-08
    9.568373312241e-01 1.591562500000e+02-2.432056387882e+00-7.969974838586e-09
    4.164459180726e-10 1.000000000000e+00 2.115000000000e+03 0.000000000000e+00
    2.400000000000e+00 0.000000000000e+00 4.656612873077e-10 1.010000000000e+02
    4.464000000000e+05 4.000000000000e+00
26 20  7 24  6  0  0.0 2.488610334694e-04 6.707523425575e-12 0.000000000000e+00
    8.500000000000e+01-2.862500000000e+01 5.076997191597e-09 4.575167802903e-01
   -1.475214958191e-06 4.789887345396e-03 7.821246981621e-06 5.153651565552e+03
    4.536000000000e+05-3.166496753693e-08-6.654738124554e-02 1.117587089539e-08
    9.461829500549e-01 2.165000000000e+02 2.145890293744e-01-8.394278226811e-09
   -6.746709598964e-10 1.000000000000e+00 2.115000000000e+03 0.000000000000e+00
    2.400000000000e+00 0.000000000000e+00 6.984919309616e-09 8.500000000000e+01
    4.464000000000e+05 4.000000000000e+00
